{
    "links": {
        "self": "http://www.neowsapp.com/rest/v1/neo/3674026?api_key=iIulBulltgU6a56xZRHN4H3l9WmuAYTsLGpBGhQ2"
    },
    "id": "3674026",
    "neo_reference_id": "3674026",
    "name": "(2014 MJ26)",
    "designation": "2014 MJ26",
    "nasa_jpl_url": "http://ssd.jpl.nasa.gov/sbdb.cgi?sstr=3674026",
    "absolute_magnitude_h": 24.8,
    "estimated_diameter": {
        "kilometers": {
            "estimated_diameter_min": 0.0291443905,
            "estimated_diameter_max": 0.0651688382
        },
        "meters": {
            "estimated_diameter_min": 29.1443904535,
            "estimated_diameter_max": 65.1688382168
        },
        "miles": {
            "estimated_diameter_min": 0.018109479,
            "estimated_diameter_max": 0.0404940262
        },
        "feet": {
            "estimated_diameter_min": 95.6180819754,
            "estimated_diameter_max": 213.8085311752
        }
    },
    "is_potentially_hazardous_asteroid": false,
    "close_approach_data": [
        {
            "close_approach_date": "2014-07-02",
            "close_approach_date_full": "2014-Jul-02 07:08",
            "epoch_date_close_approach": 1404284880000,
            "relative_velocity": {
                "kilometers_per_second": "8.6807978475",
                "kilometers_per_hour": "31250.872251044",
                "miles_per_hour": "19418.0767051001"
            },
            "miss_distance": {
                "astronomical": "0.0248836251",
                "lunar": "9.6797301639",
                "kilometers": "3722537.312838537",
                "miles": "2313077.4273723306"
            },
            "orbiting_body": "Earth"
        }
    ],
    "orbital_data": {
        "orbit_id": "3",
        "orbit_determination_date": "2017-04-06 08:39:55",
        "first_observation_date": "2014-06-27",
        "last_observation_date": "2014-06-28",
        "data_arc_in_days": 1,
        "observations_used": 39,
        "orbit_uncertainty": "8",
        "minimum_orbit_intersection": ".0113955",
        "jupiter_tisserand_invariant": "3.653",
        "epoch_osculation": "2456836.5",
        "eccentricity": ".5033083483756098",
        "semi_major_axis": "2.013071132655067",
        "inclination": "6.47329943544336",
        "ascending_node_longitude": "111.1290486246506",
        "orbital_period": "1043.246913630841",
        "perihelion_distance": ".999875625715827",
        "perihelion_argument": "188.7337833750632",
        "aphelion_distance": "3.026266639594306",
        "perihelion_time": "2456856.694687103341",
        "mean_anomaly": "353.0312879317318",
        "mean_motion": ".3450765061428095",
        "equinox": "J2000",
        "orbit_class": {
            "orbit_class_type": "APO",
            "orbit_class_description": "Near-Earth asteroid orbits which cross the Earth’s orbit similar to that of 1862 Apollo",
            "orbit_class_range": "a (semi-major axis) > 1.0 AU; q (perihelion) < 1.017 AU"
        }
    },
    "is_sentry_object": false
}